STARLINK-30860          
1 58234U 23171E   25001.65191855  .00003275  00000+0  25729-3 0  9998
2 58234  42.9995 113.7590 0000465 346.8305  13.2525 15.02550405 64737
STARLINK-30879          
1 58235U 23171F   25001.51005596  .00004965  00000+0  12610-3 0  9992
2 58235  43.0004  76.7392 0001581 290.8166  69.2521 15.40686095 65153
STARLINK-30853          
1 58236U 23171G   25001.65859074  .00009183  00000+0  69362-3 0  9999
2 58236  43.0003 113.8052 0001375 263.4255  96.6430 15.02554362 64730
STARLINK-30866          
1 58237U 23171H   25001.62863469  .00004673  00000+0  36066-3 0  9994
2 58237  43.0004 113.5739 0001424 273.7395  86.3285 15.02548373 64734
STARLINK-30817          
1 58238U 23171J   25001.79487388  .00005266  00000+0  40449-3 0  9994
2 58238  43.0001 113.1010 0000543 258.2922 101.7860 15.02544731 64752
STARLINK-30847          
1 58239U 23171K   25001.59877589  .00001156  00000+0  10060-3 0  9999
2 58239  43.0023 114.2121 0001427 272.3553  87.7126 15.02538569 64728
STARLINK-30848          
1 58240U 23171L   25001.74639663  .00020083  00000+0  14965-2 0  9994
2 58240  43.0017 114.4322 0001071 283.3059  76.7663 15.02560213 64732
STARLINK-30843          
1 58241U 23171M   25001.73503822 -.00004539  00000+0 -32084-3 0  9994
2 58241  42.9949 113.4988 0000411 264.6864  95.3931 15.02575117 64762
STARLINK-30877          
1 58242U 23171N   25001.29957032  .00001670  00000+0  13863-3 0  9997
2 58242  43.0013 115.4005 0001156 266.5727  93.4983 15.02539141 64689
STARLINK-30864          
1 58243U 23171P   25001.67511551  .00004533  00000+0  35019-3 0  9990
2 58243  42.9993 113.0741 0001210 317.7646  42.3103 15.02563610 64647
STARLINK-30854          
1 58244U 23171Q   25001.60012869  .00002571  00000+0  20534-3 0  9998
2 58244  43.0009 115.0685 0001413 266.7652  93.3028 15.02535356 64718
STARLINK-30849          
1 58245U 23171R   25001.61197530  .00003022  00000+0  23866-3 0  9992
2 58245  43.0025 113.4572 0001847 273.1952  86.8679 15.02539418 64734
STARLINK-30886          
1 58246U 23171S   25001.28625389 -.00000532  00000+0 -24333-4 0  9990
2 58246  43.0001 115.3086 0000797 273.6461  86.4290 15.02541465 64687
STARLINK-30850          
1 58247U 23171T   25001.61530266  .00001713  00000+0  14181-3 0  9996
2 58247  42.9999 113.4814 0002170 302.2589  57.8043 15.02541554 64730
STARLINK-30823          
1 58248U 23171U   25001.62196143  .00014801  00000+0  11077-2 0  9992
2 58248  43.0022 113.5276 0001125 276.8752  83.1963 15.02560782 64737
STARLINK-30873          
1 58249U 23171V   25001.35939003  .00001077  00000+0  94785-4 0  9993
2 58249  43.0035 114.9983 0001041 268.1766  91.8957 15.02532973 64693
STARLINK-30808          
1 58250U 23171W   25001.65340509  .00011318  00000+0  85107-3 0  9991
2 58250  43.0005 115.4399 0001444 275.5834  84.4844 15.02558601 64716
STARLINK-30881          
1 58251U 23171X   25001.60540755  .00001582  00000+0  13208-3 0  9997
2 58251  43.0012 114.1739 0001406 280.5080  79.5604 15.02556404 64725
STARLINK-30883          
1 58252U 23171Y   25001.56877473 -.00013517  00000+0 -98593-3 0  9996
2 58252  42.9986 113.9793 0001508 299.0235  61.0456 15.02595408 64729
STARLINK-30907          
1 58352U 23177B   25001.86027985  .00002293  00000+0  18468-3 0  9991
2 58352  43.0015 178.3410 0001005 266.9210  93.1517 15.02546344 63261
STARLINK-30896          
1 58353U 23177C   25001.74410763  .00004801  00000+0  19311-3 0  9994
2 58353  43.0000 124.7810 0000666 252.3160 107.7618 15.25934013 63814
STARLINK-30832          
1 58354U 23177D   25001.82252865 -.00008308  00000+0 -60054-3 0  9999
2 58354  42.9988 178.0697 0000991 262.8276  97.2454 15.02543569 63108
STARLINK-30903          
1 58355U 23177E   25001.46918625  .00004817  00000+0  37136-3 0  9997
2 58355  43.0010 180.5839 0001451 244.4703 115.5990 15.02539482 63193
STARLINK-30905          
1 58356U 23177F   25001.85583119  .00006771  00000+0  51554-3 0  9998
2 58356  42.9984 178.2877 0001215 266.9902  93.0801 15.02554697 63226
STARLINK-30842          
1 58357U 23177G   25001.83697813  .00002797  00000+0  22198-3 0  9990
2 58357  43.0008 164.3729 0001244 271.0416  89.0283 15.02551766 63411
STARLINK-30858          
1 58358U 23177H   25001.52900266  .00002857  00000+0  22646-3 0  9991
2 58358  43.0008 180.1721 0000515 212.8787 147.2023 15.02536025 63212
STARLINK-30878          
1 58359U 23177J   25001.75051091  .00000120  00000+0  23944-4 0  9994
2 58359  42.9992 178.3901 0000962 274.6210  85.4522 15.02552925 63242
STARLINK-30897          
1 58360U 23177K   25001.53233320  .00005589  00000+0  42845-3 0  9993
2 58360  43.0005 180.1963 0001262 268.2652  91.8046 15.02536611 63205
STARLINK-30885          
1 58361U 23177L   25001.85471933  .00004617  00000+0  35642-3 0  9991
2 58361  43.0011 178.3156 0001739 276.9161  83.1483 15.02554958 63276
STARLINK-30890          
1 58362U 23177M   25001.78488887  .00002542  00000+0  20298-3 0  9996
2 58362  43.0006 178.6525 0000951 272.7605  87.3129 15.02570336 63198
STARLINK-30909          
1 58363U 23177N   25001.78380945  .00000658  00000+0  63722-4 0  9999
2 58363  43.0003 178.6419 0001083 264.3033  95.7686 15.02543913 63245
STARLINK-30904          
1 58364U 23177P   25001.78677268 -.00002435  00000+0 -16518-3 0  9994
2 58364  42.9988 176.9544 0001333 274.6497  85.4193 15.02548354 63267
STARLINK-30918          
1 58365U 23177Q   25001.84140174  .00008223  00000+0  62272-3 0  9990
2 58365  43.0006 178.2137 0001371 265.6443  94.4242 15.02558542 63251
STARLINK-30892          
1 58366U 23177R   25001.84473036  .00010377  00000+0  78143-3 0  9994
2 58366  43.0007 178.2393 0001321 270.8069  89.2622 15.02568103 63263
STARLINK-30891          
1 58367U 23177S   25001.83807849  .00004888  00000+0  37643-3 0  9997
2 58367  43.0005 178.1870 0001271 265.4935  94.5762 15.02560236 63192
STARLINK-30889          
1 58368U 23177T   25001.90677449  .00005259  00000+0  40397-3 0  9990
2 58368  42.9978 177.8411 0001663 295.6513  64.4158 15.02548184 63260
STARLINK-30870          
1 58369U 23177U   25001.90233428  .00006877  00000+0  52340-3 0  9994
2 58369  42.9966 177.8072 0002378 248.6112 111.4476 15.02552681 63261
STARLINK-30888          
1 58370U 23177V   25001.67415294 -.00003562  00000+0 -24857-3 0  9995
2 58370  43.0026 179.5254 0001212 263.6851  96.3854 15.02563730 63231
STARLINK-30859          
1 58371U 23177W   25001.19882724  .00001297  00000+0  11108-3 0  9995
2 58371  42.9996 181.9589 0000998 270.5307  89.5420 15.02538181 63164
STARLINK-30884          
1 58372U 23177X   25001.76383341  .00000953  00000+0  85583-4 0  9997
2 58372  42.9988 178.4877 0000256 266.4390  93.6423 15.02543531 63243
STARLINK-30852          
1 58373U 23177Y   25001.52566542  .00001124  00000+0  98268-4 0  9993
2 58373  43.0000 180.1104 0001451 282.3308  77.7372 15.02527150 63209
STARLINK-30911          
1 58374U 23178A   25001.76234079 -.00000372  00000+0 -45625-6 0  9995
2 58374  53.1604 207.1732 0000970  99.2760 260.8350 15.30187421 63756
STARLINK-30894          
1 58375U 23178B   25001.57695025  .00003719  00000+0  13760-3 0  9995
2 58375  53.1590 208.1517 0001197  91.6109 268.5029 15.30202915 63662
STARLINK-30910          
1 58376U 23178C   25001.58011395  .00002954  00000+0  11183-3 0  9996
2 58376  53.1578 208.1708 0003120  92.3217 267.8141 15.30205723 63732
STARLINK-30914          
1 58377U 23178D   25001.76445057  .00001137  00000+0  50516-4 0  9999
2 58377  53.1592 207.1751 0001142  65.5734 294.5385 15.30200520 63764
STARLINK-30920          
1 58378U 23178E   25001.87657358  .00097913  00000+0  27679-2 0  9990
2 58378  53.1572 206.4867 0000436 237.5015 122.5946 15.35553647 63782
STARLINK-30882          
1 58379U 23178F   25001.58328062  .00032034  00000+0  10869-2 0  9992
2 58379  53.1582 208.1898 0001158 116.6692 243.4428 15.30263309 63738
STARLINK-30915          
1 58380U 23178G   25001.88233531  .00071615  00000+0  16997-2 0  9999
2 58380  53.1567 119.2384 0002616  36.8847 323.2338 15.41079471 64971
STARLINK-30923          
1 58381U 23178H   25001.59276987  .00009972  00000+0  34816-3 0  9998
2 58381  53.1566 208.2060 0001242  87.0354 273.0789 15.30216917 63669
STARLINK-30927          
1 58382U 23178J   25001.73711983  .00004028  00000+0  14809-3 0  9992
2 58382  53.1581 207.7241 0000542  89.1336 270.9726 15.30190249 63731
STARLINK-30921          
1 58383U 23178K   25001.58960843  .00002565  00000+0  98673-4 0  9993
2 58383  53.1587 208.2296 0001013  87.4698 272.6419 15.30204217 63717
STARLINK-30825          
1 58384U 23178L   25001.76972803  .00006859  00000+0  24352-3 0  9995
2 58384  53.1598 207.1910 0001292  96.0954 264.0193 15.30194097 63764
STARLINK-30930          
1 58385U 23178M   25001.75917310  .00001704  00000+0  69642-4 0  9993
2 58385  53.1602 207.1467 0001002 105.4452 254.6659 15.30196355 63632
STARLINK-30929          
1 58386U 23178N   25001.56014662  .00001249  00000+0  54291-4 0  9999
2 58386  53.1603 208.5504 0001326  90.1785 269.9368 15.30198643 63705
STARLINK-30898          
1 58387U 23178P   25001.87722699  .00002024  00000+0  80419-4 0  9993
2 58387  53.1586 207.0474 0001192 105.8186 254.2946 15.30204053 63775
STARLINK-30913          
1 58388U 23178Q   25001.73289980 -.00001393  00000+0 -34916-4 0  9991
2 58388  53.1595 207.7011 0000864 105.8794 254.2302 15.30217051 63756
STARLINK-30938          
1 58389U 23178R   25001.73501142  .00003041  00000+0  11471-3 0  9999
2 58389  53.1584 207.7109 0000249 317.1263  42.9718 15.30205393 63758
STARLINK-30868          
1 58390U 23178S   25001.72657545  .00001644  00000+0  67606-4 0  9998
2 58390  53.1610 207.6642 0001451 100.5829 259.5335 15.30206900 63755
STARLINK-30916          
1 58391U 23178T   24366.30336074  .00001018  00000+0  46523-4 0  9997
2 58391  53.1582 214.3186 0001218  90.0890 270.0251 15.30185346 63535
